NORAD_CAT_ID,OBJECT_NAME,OBJECT_TYPE,EPOCH,MEAN_MOTION,ECCENTRICITY,INCLINATION,RA_OF_ASC_NODE,ARG_OF_PERICENTER,MEAN_ANOMALY,BSTAR,MEAN_MOTION_DOT,MEAN_MOTION_DDOT,TLE_LINE0,TLE_LINE1,TLE_LINE2,SEMIMAJOR_AXIS,PERIOD,APOGEE,PERIGEE,DECAYED
51858.0,STARLINK-3563,PAYLOAD,2023-07-09 15:29:08,15.08834498,0.0001068,53.2185,71.7763,97.2301,262.8812,0.00010743,1.422e-05,0.0,0 STARLINK-3563,1 51858U 22022G   23190.64523916  .00001422  00000-0  10743-3 0  9993,2 51858  53.2185  71.7763 0001068  97.2301 262.8812 15.08834498 75978,6917.897,95.438,540.501,539.023,0.0
51858.0,STARLINK-3563,PAYLOAD,2023-07-10 01:01:27,15.08844288,0.0001044,53.2185,69.9921,98.5501,261.561,8.6416e-05,1.088e-05,0.0,0 STARLINK-3563,1 51858U 22022G   23191.04267492  .00001088  00000-0  86416-4 0  9991,2 51858  53.2185  69.9921 0001044  98.5501 261.5610 15.08844288 76031,6917.867,95.437,540.455,539.01,0.0
51858.0,STARLINK-3563,PAYLOAD,2023-07-11 23:07:38,15.08843597,0.0001001,53.2175,61.3682,80.356,279.7546,0.00013218,1.817e-05,0.0,0 STARLINK-3563,1 51858U 22022G   23192.96363522  .00001817  00000-0  13218-3 0  9993,2 51858  53.2175  61.3682 0001001  80.3560 279.7546 15.08843597 76320,6917.869,95.437,540.427,539.042,0.0
51858.0,STARLINK-3563,PAYLOAD,2023-07-13 00:33:47,15.08848225,9.5e-05,53.2179,56.6092,97.6596,262.4504,4.3206e-05,4e-06,0.0,0 STARLINK-3563,1 51858U 22022G   23194.02347128  .00000400  00000-0  43206-4 0  9994,2 51858  53.2179  56.6092 0000950  97.6596 262.4504 15.08848225 76481,6917.855,95.437,540.377,539.063,0.0
51858.0,STARLINK-3563,PAYLOAD,2023-07-13 18:03:03,15.08838355,0.0001156,53.2182,53.3362,104.9896,255.1224,-3.8207e-05,-8.96e-06,0.0,0 STARLINK-3563,1 51858U 22022G   23194.75212089 -.00000896  00000-0 -38207-4 0  9997,2 51858  53.2182  53.3362 0001156 104.9896 255.1224 15.08838355 76596,6917.885,95.438,540.55,538.951,0.0
51858.0,STARLINK-3563,PAYLOAD,2023-07-14 17:53:49,15.08845033,9.03e-05,53.2185,48.8789,97.6207,262.4888,0.00013933,1.931e-05,0.0,0 STARLINK-3563,1 51858U 22022G   23195.74571366  .00001931  00000-0  13933-3 0  9990,2 51858  53.2185  48.8789 0000903  97.6207 262.4888 15.08845033 76749,6917.865,95.437,540.355,539.105,0.0
51858.0,STARLINK-3563,PAYLOAD,2023-07-15 06:36:55,15.08831547,9.81e-05,53.2174,46.4955,81.0151,279.0952,0.00054554,8.403e-05,0.0,0 STARLINK-3563,1 51858U 22022G   23196.27564363  .00008403  00000-0  54554-3 0  9993,2 51858  53.2174  46.4955 0000981  81.0151 279.0952 15.08831547 76827,6917.906,95.438,540.45,539.093,0.0
51858.0,STARLINK-3563,PAYLOAD,2023-07-16 20:46:10,15.08835489,0.0001003,53.2177,39.3639,101.9723,258.1382,-2.832e-05,-7.38e-06,0.0,0 STARLINK-3563,1 51858U 22022G   23197.86540243 -.00000738  00000-0 -28320-4 0  9998,2 51858  53.2177  39.3639 0001003 101.9723 258.1382 15.08835489 77064,6917.894,95.438,540.453,539.065,0.0
51858.0,STARLINK-3563,PAYLOAD,2023-07-17 17:26:11,15.08845387,9.7e-05,53.2182,35.4976,99.9608,260.1494,0.00023364,3.433e-05,0.0,0 STARLINK-3563,1 51858U 22022G   23198.72652061  .00003433  00000-0  23364-3 0  9991,2 51858  53.2182  35.4976 0000970  99.9608 260.1494 15.08845387 77190,6917.864,95.437,540.4,539.058,0.0
51858.0,STARLINK-3563,PAYLOAD,2023-07-17 20:36:57,15.08852379,8.96e-05,53.2176,34.9029,92.0862,268.0233,0.00036301,5.496e-05,0.0,0 STARLINK-3563,1 51858U 22022G   23198.85899831  .00005496  00000-0  36301-3 0  9999,2 51858  53.2176  34.9029 0000896  92.0862 268.0233 15.08852379 77219,6917.843,95.437,540.327,539.088,0.0
51858.0,STARLINK-3563,PAYLOAD,2023-07-18 20:27:44,15.08845622,9.06e-05,53.2173,30.442,79.6043,280.5051,0.00017766,2.541e-05,0.0,0 STARLINK-3563,1 51858U 22022G   23199.85260149  .00002541  00000-0  17766-3 0  9996,2 51858  53.2173  30.4420 0000906  79.6043 280.5051 15.08845622 77362,6917.863,95.437,540.355,539.101,0.0
51858.0,STARLINK-3563,PAYLOAD,2023-07-19 17:07:45,15.08834687,0.0001018,53.2168,26.5739,110.5486,249.5615,-4.659e-05,-1.029e-05,0.0,0 STARLINK-3563,1 51858U 22022G   23200.71372644 -.00001029  00000-0 -46590-4 0  9998,2 51858  53.2168  26.5739 0001018 110.5486 249.5615 15.08834687 77490,6917.897,95.438,540.466,539.057,0.0
51858.0,STARLINK-3563,PAYLOAD,2023-07-20 20:09:19,15.08860651,7.35e-05,53.2174,21.521,74.3679,285.7394,0.00059139,9.142e-05,0.0,0 STARLINK-3563,1 51858U 22022G   23201.83980351  .00009142  00000-0  59139-3 0  9996,2 51858  53.2174  21.5210 0000735  74.3679 285.7394 15.08860651 77667,6917.817,95.436,540.191,539.174,0.0
51858.0,STARLINK-3563,PAYLOAD,2023-07-21 16:49:19,15.08844941,9.73e-05,53.2177,17.6556,80.2737,279.8365,6.2713e-05,7.11e-06,0.0,0 STARLINK-3563,1 51858U 22022G   23202.70092541  .00000711  00000-0  62713-4 0  9994,2 51858  53.2177  17.6556 0000973  80.2737 279.8365 15.08844941 77794,6917.865,95.437,540.403,539.057,0.0
51858.0,STARLINK-3563,PAYLOAD,2023-07-23 11:44:44,15.08834765,8.9e-05,53.2172,9.6266,99.94,260.1693,-8.2734e-06,-4.19e-06,0.0,0 STARLINK-3563,1 51858U 22022G   23204.48940950 -.00000419  00000-0 -82734-5 0  9990,2 51858  53.2172   9.6266 0000890  99.9400 260.1693 15.08834765 78061,6917.896,95.438,540.377,539.146,0.0
51858.0,STARLINK-3563,PAYLOAD,2023-07-25 13:01:42,15.08835451,7.96e-05,53.2183,0.4073,105.6541,254.4539,1.1896e-05,-9.8e-07,0.0,0 STARLINK-3563,1 51858U 22022G   23206.54285216 -.00000098  00000-0  11896-4 0  9998,2 51858  53.2183   0.4073 0000796 105.6541 254.4539 15.08835451 78376,6917.894,95.438,540.31,539.209,0.0
51858.0,STARLINK-3563,PAYLOAD,2023-07-26 09:41:43,15.08834914,6.15e-05,53.219,356.5429,74.1668,285.9392,0.00010395,1.367e-05,0.0,0 STARLINK-3563,1 51858U 22022G   23207.40397575  .00001367  00000-0  10395-3 0  9997,2 51858  53.2190 356.5429 0000615  74.1668 285.9392 15.08834914 78508,6917.896,95.438,540.186,539.335,0.0
51858.0,STARLINK-3563,PAYLOAD,2023-07-26 17:38:38,15.08845995,0.0001124,53.2176,355.0591,66.8345,293.2765,0.00014896,2.084e-05,0.0,0 STARLINK-3563,1 51858U 22022G   23207.73516945  .00002084  00000-0  14896-3 0  9994,2 51858  53.2176 355.0591 0001124  66.8345 293.2765 15.08845995 78554,6917.862,95.437,540.505,538.949,0.0
51858.0,STARLINK-3563,PAYLOAD,2023-07-27 03:10:57,15.08843555,0.000112,53.2173,353.2754,66.2064,293.9046,0.00010796,1.431e-05,0.0,0 STARLINK-3563,1 51858U 22022G   23208.13261145  .00001431  00000-0  10796-3 0  9998,2 51858  53.2173 353.2754 0001120  66.2064 293.9046 15.08843555 78616,6917.87,95.437,540.509,538.96,0.0
51858.0,STARLINK-3563,PAYLOAD,2023-07-27 15:54:02,15.08844542,6.39e-05,53.2191,350.8932,71.6592,288.4469,0.00010193,1.335e-05,0.0,0 STARLINK-3563,1 51858U 22022G   23208.66252905  .00001335  00000-0  10193-3 0  9994,2 51858  53.2191 350.8932 0000639  71.6592 288.4469 15.08844542 78690,6917.867,95.437,540.174,539.289,0.0
51858.0,STARLINK-3563,PAYLOAD,2023-07-27 20:40:12,15.08837311,8.36e-05,53.219,350.0018,73.2158,286.8925,4.1567e-05,3.74e-06,0.0,0 STARLINK-3563,1 51858U 22022G   23208.86125702  .00000374  00000-0  41567-4 0  9992,2 51858  53.2190 350.0018 0000836  73.2158 286.8925 15.08837311 78720,6917.889,95.438,540.332,539.175,0.0
51858.0,STARLINK-3563,PAYLOAD,2023-07-28 03:01:45,15.08836121,6.24e-05,53.2196,348.811,78.5756,281.5306,2.7276e-05,1.47e-06,0.0,0 STARLINK-3563,1 51858U 22022G   23209.12621697  .00000147  00000-0  27276-4 0  9995,2 51858  53.2196 348.8110 0000624  78.5756 281.5306 15.08836121 78768,6917.892,95.438,540.189,539.326,0.0
51858.0,STARLINK-3563,PAYLOAD,2023-07-28 18:55:35,15.08848324,8.43e-05,53.2199,345.8352,116.6125,243.4953,-4.3413e-05,-9.79e-06,0.0,0 STARLINK-3563,1 51858U 22022G   23209.78861070 -.00000979  00000-0 -43413-4 0  9994,2 51858  53.2199 345.8352 0000843 116.6125 243.4953 15.08848324 78867,6917.855,95.437,540.303,539.137,0.0
51858.0,STARLINK-3563,PAYLOAD,2023-07-29 20:21:45,15.08851484,5.9e-05,53.219,341.0801,77.5578,282.548,0.00021053,3.066e-05,0.0,0 STARLINK-3563,1 51858U 22022G   23210.84844034  .00003066  00000-0  21053-3 0  9997,2 51858  53.2190 341.0801 0000590  77.5578 282.5480 15.08851484 79020,6917.845,95.437,540.118,539.302,0.0
51858.0,STARLINK-3563,PAYLOAD,2023-07-30 09:04:52,15.08829561,9.39e-05,53.2188,338.7032,61.9572,298.1515,1.9546e-05,2.3e-07,0.0,0 STARLINK-3563,1 51858U 22022G   23211.37838230  .00000023  00000-0  19546-4 0  9992,2 51858  53.2188 338.7032 0000939  61.9572 298.1515 15.08829561 79106,6917.912,95.438,540.427,539.128,0.0
51858.0,STARLINK-3563,PAYLOAD,2023-07-30 18:37:09,15.08850397,4.9e-05,53.2192,336.9168,100.6005,259.5042,1.5196e-06,-2.63e-06,0.0,0 STARLINK-3563,1 51858U 22022G   23211.77580962 -.00000263  00000-0  15196-5 0  9997,2 51858  53.2192 336.9168 0000490 100.6005 259.5042 15.08850397 79168,6917.849,95.437,540.053,539.375,0.0
51858.0,STARLINK-3563,PAYLOAD,2023-07-31 08:55:38,15.08838111,7.23e-05,53.2176,334.241,94.797,265.3104,5.253e-05,5.48e-06,0.0,0 STARLINK-3563,1 51858U 22022G   23212.37197609  .00000548  00000-0  52530-4 0  9993,2 51858  53.2176 334.2410 0000723  94.7970 265.3104 15.08838111 79258,6917.886,95.438,540.251,539.251,0.0
51858.0,STARLINK-3563,PAYLOAD,2023-07-31 16:52:33,15.0885008,6.06e-05,53.2181,332.7556,85.0164,275.0897,0.0001102,1.467e-05,0.0,0 STARLINK-3563,1 51858U 22022G   23212.70316765  .00001467  00000-0  11020-3 0  9995,2 51858  53.2181 332.7556 0000606  85.0164 275.0897 15.08850080 79308,6917.85,95.437,540.134,539.295,0.0
51858.0,STARLINK-3563,PAYLOAD,2023-08-01 18:18:44,15.08842518,8.25e-05,53.2186,327.9962,86.9409,273.1677,9.0525e-05,1.153e-05,0.0,0 STARLINK-3563,1 51858U 22022G   23213.76301337  .00001153  00000-0  90525-4 0  9991,2 51858  53.2186 327.9962 0000825  86.9409 273.1677 15.08842518 79464,6917.873,95.437,540.308,539.167,0.0
51858.0,STARLINK-3563,PAYLOAD,2023-08-02 08:37:12,15.08835761,8.33e-05,53.2183,325.3209,90.8633,269.2454,2.9926e-05,1.89e-06,0.0,0 STARLINK-3563,1 51858U 22022G   23214.35917793  .00000189  00000-0  29926-4 0  9991,2 51858  53.2183 325.3209 0000833  90.8633 269.2454 15.08835761 79550,6917.893,95.438,540.335,539.182,0.0
